STARLINK-36638          
1 67594U 26018F   26050.23398707  .00084674  00000+0  43774-3 0  9996
2 67594  97.2843 115.1482 0001373  57.2348 302.9052 15.80854494  4408
STARLINK-36628          
1 67595U 26018G   26050.18519615  .00107322  00000+0  71006-3 0  9999
2 67595  97.2837 115.0606 0001255 100.2357 259.9050 15.75233458  4399
STARLINK-36629          
1 67596U 26018H   26050.25648767  .00135052  00000+0  89013-3 0  9997
2 67596  97.2832 115.1162 0001695 103.8588 256.2866 15.75240173  4405
STARLINK-36384          
1 67597U 26018J   26050.23104223  .00184554  00000+0  94178-3 0  9999
2 67597  97.2848 115.1515 0001088  98.9965 261.1427 15.80867646  4408
STARLINK-36358          
1 67598U 26018K   26050.25049047  .00113780  00000+0  75247-3 0  9993
2 67598  97.2838 115.1248 0001387  71.4151 288.7265 15.75224225  4405
STARLINK-36582          
1 67599U 26018L   26050.25002315 -.00148613  00000+0 -10102-2 0  9994
2 67599  97.2841 115.1631 0001407  69.0895  16.3721 15.75252212  4484
STARLINK-36640          
1 67600U 26018M   26050.25437116  .00157473  00000+0  10347-2 0  9991
2 67600  97.2835 115.1188 0001792 104.3617 255.7847 15.75247383  4402
STARLINK-36635          
1 67601U 26018N   26050.22819750  .00215088  00000+0  10912-2 0  9992
2 67601  97.2848 115.1551 0001410  83.7184 276.4245 15.80916092  4405
STARLINK-36631          
1 67602U 26018P   26050.22581953  .00044949  00000+0  23383-3 0  9997
2 67602  97.2850 115.1580 0001490 107.4034 252.7398 15.80850245  4400
STARLINK-36626          
1 67603U 26018Q   26050.25002315 -.00129575  00000+0 -87910-3 0  9998
2 67603  97.2849 115.1785 0001055  75.2791  44.1920 15.75242428  4388
STARLINK-36605          
1 67604U 26018R   26050.18309101  .00159094  00000+0  10449-2 0  9993
2 67604  97.2838 115.0634 0000948 100.2222 259.9150 15.75252839  4396
STARLINK-36281          
1 67605U 26018S   26050.22457384  .00138932  00000+0  71237-3 0  9997
2 67605  97.2851 115.1592 0001615 103.9791 256.1657 15.80883069  4403
