CCSDS_OMM_VERS = 2.0
CREATION_DATE  = 
ORIGINATOR     = 

OBJECT_NAME    = STARLINK-36638
OBJECT_ID      = 2026-018F
CENTER_NAME    = EARTH
REF_FRAME      = TEME
TIME_SYSTEM    = UTC
MEAN_ELEMENT_THEORY = SGP/SGP4

EPOCH          = 2026-02-19T05:36:56.482848
MEAN_MOTION    = 15.80854494
ECCENTRICITY   = .00013733
INCLINATION    = 97.2843
RA_OF_ASC_NODE = 115.1482
ARG_OF_PERICENTER = 57.2348
MEAN_ANOMALY   = 302.9052

EPHEMERIS_TYPE = 0
CLASSIFICATION_TYPE = U
NORAD_CAT_ID   = 67594
ELEMENT_SET_NO = 999
REV_AT_EPOCH   = 440
BSTAR          = .43774487E-3
MEAN_MOTION_DOT = .84674E-3
MEAN_MOTION_DDOT = 0

CCSDS_OMM_VERS = 2.0
CREATION_DATE  = 
ORIGINATOR     = 

OBJECT_NAME    = STARLINK-36628
OBJECT_ID      = 2026-018G
CENTER_NAME    = EARTH
REF_FRAME      = TEME
TIME_SYSTEM    = UTC
MEAN_ELEMENT_THEORY = SGP/SGP4

EPOCH          = 2026-02-19T04:26:40.947360
MEAN_MOTION    = 15.75233458
ECCENTRICITY   = .0001255
INCLINATION    = 97.2837
RA_OF_ASC_NODE = 115.0606
ARG_OF_PERICENTER = 100.2357
MEAN_ANOMALY   = 259.9050

EPHEMERIS_TYPE = 0
CLASSIFICATION_TYPE = U
NORAD_CAT_ID   = 67595
ELEMENT_SET_NO = 999
REV_AT_EPOCH   = 439
BSTAR          = .71006017E-3
MEAN_MOTION_DOT = .107322E-2
MEAN_MOTION_DDOT = 0

CCSDS_OMM_VERS = 2.0
CREATION_DATE  = 
ORIGINATOR     = 

OBJECT_NAME    = STARLINK-36629
OBJECT_ID      = 2026-018H
CENTER_NAME    = EARTH
REF_FRAME      = TEME
TIME_SYSTEM    = UTC
MEAN_ELEMENT_THEORY = SGP/SGP4

EPOCH          = 2026-02-19T06:09:20.534688
MEAN_MOTION    = 15.75240173
ECCENTRICITY   = .00016954
INCLINATION    = 97.2832
RA_OF_ASC_NODE = 115.1162
ARG_OF_PERICENTER = 103.8588
MEAN_ANOMALY   = 256.2866

EPHEMERIS_TYPE = 0
CLASSIFICATION_TYPE = U
NORAD_CAT_ID   = 67596
ELEMENT_SET_NO = 999
REV_AT_EPOCH   = 440
BSTAR          = .89012624E-3
MEAN_MOTION_DOT = .135052E-2
MEAN_MOTION_DDOT = 0

CCSDS_OMM_VERS = 2.0
CREATION_DATE  = 
ORIGINATOR     = 

OBJECT_NAME    = STARLINK-36384
OBJECT_ID      = 2026-018J
CENTER_NAME    = EARTH
REF_FRAME      = TEME
TIME_SYSTEM    = UTC
MEAN_ELEMENT_THEORY = SGP/SGP4

EPOCH          = 2026-02-19T05:32:42.048672
MEAN_MOTION    = 15.80867646
ECCENTRICITY   = .00010889
INCLINATION    = 97.2848
RA_OF_ASC_NODE = 115.1515
ARG_OF_PERICENTER = 98.9965
MEAN_ANOMALY   = 261.1427

EPHEMERIS_TYPE = 0
CLASSIFICATION_TYPE = U
NORAD_CAT_ID   = 67597
ELEMENT_SET_NO = 999
REV_AT_EPOCH   = 440
BSTAR          = .94178051E-3
MEAN_MOTION_DOT = .184554E-2
MEAN_MOTION_DDOT = 0

CCSDS_OMM_VERS = 2.0
CREATION_DATE  = 
ORIGINATOR     = 

OBJECT_NAME    = STARLINK-36358
OBJECT_ID      = 2026-018K
CENTER_NAME    = EARTH
REF_FRAME      = TEME
TIME_SYSTEM    = UTC
MEAN_ELEMENT_THEORY = SGP/SGP4

EPOCH          = 2026-02-19T06:00:42.376608
MEAN_MOTION    = 15.75224225
ECCENTRICITY   = .0001387
INCLINATION    = 97.2838
RA_OF_ASC_NODE = 115.1248
ARG_OF_PERICENTER = 71.4151
MEAN_ANOMALY   = 288.7265

EPHEMERIS_TYPE = 0
CLASSIFICATION_TYPE = U
NORAD_CAT_ID   = 67598
ELEMENT_SET_NO = 999
REV_AT_EPOCH   = 440
BSTAR          = .75246647E-3
MEAN_MOTION_DOT = .11378E-2
MEAN_MOTION_DDOT = 0

CCSDS_OMM_VERS = 2.0
CREATION_DATE  = 
ORIGINATOR     = 

OBJECT_NAME    = STARLINK-36582
OBJECT_ID      = 2026-018L
CENTER_NAME    = EARTH
REF_FRAME      = TEME
TIME_SYSTEM    = UTC
MEAN_ELEMENT_THEORY = SGP/SGP4

EPOCH          = 2026-02-19T06:00:02.000160
MEAN_MOTION    = 15.75252212
ECCENTRICITY   = .00014074
INCLINATION    = 97.2841
RA_OF_ASC_NODE = 115.1631
ARG_OF_PERICENTER = 69.0895
MEAN_ANOMALY   = 16.3721

EPHEMERIS_TYPE = 0
CLASSIFICATION_TYPE = U
NORAD_CAT_ID   = 67599
ELEMENT_SET_NO = 999
REV_AT_EPOCH   = 448
BSTAR          = -.1010153E-2
MEAN_MOTION_DOT = -.148613E-2
MEAN_MOTION_DDOT = 0

CCSDS_OMM_VERS = 2.0
CREATION_DATE  = 
ORIGINATOR     = 

OBJECT_NAME    = STARLINK-36640
OBJECT_ID      = 2026-018M
CENTER_NAME    = EARTH
REF_FRAME      = TEME
TIME_SYSTEM    = UTC
MEAN_ELEMENT_THEORY = SGP/SGP4

EPOCH          = 2026-02-19T06:06:17.668224
MEAN_MOTION    = 15.75247383
ECCENTRICITY   = .00017923
INCLINATION    = 97.2835
RA_OF_ASC_NODE = 115.1188
ARG_OF_PERICENTER = 104.3617
MEAN_ANOMALY   = 255.7847

EPHEMERIS_TYPE = 0
CLASSIFICATION_TYPE = U
NORAD_CAT_ID   = 67600
ELEMENT_SET_NO = 999
REV_AT_EPOCH   = 440
BSTAR          = .10346938E-2
MEAN_MOTION_DOT = .157473E-2
MEAN_MOTION_DDOT = 0

CCSDS_OMM_VERS = 2.0
CREATION_DATE  = 
ORIGINATOR     = 

OBJECT_NAME    = STARLINK-36635
OBJECT_ID      = 2026-018N
CENTER_NAME    = EARTH
REF_FRAME      = TEME
TIME_SYSTEM    = UTC
MEAN_ELEMENT_THEORY = SGP/SGP4

EPOCH          = 2026-02-19T05:28:36.264000
MEAN_MOTION    = 15.80916092
ECCENTRICITY   = .00014103
INCLINATION    = 97.2848
RA_OF_ASC_NODE = 115.1551
ARG_OF_PERICENTER = 83.7184
MEAN_ANOMALY   = 276.4245

EPHEMERIS_TYPE = 0
CLASSIFICATION_TYPE = U
NORAD_CAT_ID   = 67601
ELEMENT_SET_NO = 999
REV_AT_EPOCH   = 440
BSTAR          = .10911901E-2
MEAN_MOTION_DOT = .215088E-2
MEAN_MOTION_DDOT = 0

CCSDS_OMM_VERS = 2.0
CREATION_DATE  = 
ORIGINATOR     = 

OBJECT_NAME    = STARLINK-36631
OBJECT_ID      = 2026-018P
CENTER_NAME    = EARTH
REF_FRAME      = TEME
TIME_SYSTEM    = UTC
MEAN_ELEMENT_THEORY = SGP/SGP4

EPOCH          = 2026-02-19T05:25:10.807392
MEAN_MOTION    = 15.80850245
ECCENTRICITY   = .000149
INCLINATION    = 97.2850
RA_OF_ASC_NODE = 115.1580
ARG_OF_PERICENTER = 107.4034
MEAN_ANOMALY   = 252.7398

EPHEMERIS_TYPE = 0
CLASSIFICATION_TYPE = U
NORAD_CAT_ID   = 67602
ELEMENT_SET_NO = 999
REV_AT_EPOCH   = 440
BSTAR          = .23382641E-3
MEAN_MOTION_DOT = .44949E-3
MEAN_MOTION_DDOT = 0

CCSDS_OMM_VERS = 2.0
CREATION_DATE  = 
ORIGINATOR     = 

OBJECT_NAME    = STARLINK-36626
OBJECT_ID      = 2026-018Q
CENTER_NAME    = EARTH
REF_FRAME      = TEME
TIME_SYSTEM    = UTC
MEAN_ELEMENT_THEORY = SGP/SGP4

EPOCH          = 2026-02-19T06:00:02.000160
MEAN_MOTION    = 15.75242428
ECCENTRICITY   = .0001055
INCLINATION    = 97.2849
RA_OF_ASC_NODE = 115.1785
ARG_OF_PERICENTER = 75.2791
MEAN_ANOMALY   = 44.1920

EPHEMERIS_TYPE = 0
CLASSIFICATION_TYPE = U
NORAD_CAT_ID   = 67603
ELEMENT_SET_NO = 999
REV_AT_EPOCH   = 438
BSTAR          = -.87910066E-3
MEAN_MOTION_DOT = -.129575E-2
MEAN_MOTION_DDOT = 0

CCSDS_OMM_VERS = 2.0
CREATION_DATE  = 
ORIGINATOR     = 

OBJECT_NAME    = STARLINK-36605
OBJECT_ID      = 2026-018R
CENTER_NAME    = EARTH
REF_FRAME      = TEME
TIME_SYSTEM    = UTC
MEAN_ELEMENT_THEORY = SGP/SGP4

EPOCH          = 2026-02-19T04:23:39.063264
MEAN_MOTION    = 15.75252839
ECCENTRICITY   = .00009485
INCLINATION    = 97.2838
RA_OF_ASC_NODE = 115.0634
ARG_OF_PERICENTER = 100.2222
MEAN_ANOMALY   = 259.9150

EPHEMERIS_TYPE = 0
CLASSIFICATION_TYPE = U
NORAD_CAT_ID   = 67604
ELEMENT_SET_NO = 999
REV_AT_EPOCH   = 439
BSTAR          = .10449184E-2
MEAN_MOTION_DOT = .159094E-2
MEAN_MOTION_DDOT = 0

CCSDS_OMM_VERS = 2.0
CREATION_DATE  = 
ORIGINATOR     = 

OBJECT_NAME    = STARLINK-36281
OBJECT_ID      = 2026-018S
CENTER_NAME    = EARTH
REF_FRAME      = TEME
TIME_SYSTEM    = UTC
MEAN_ELEMENT_THEORY = SGP/SGP4

EPOCH          = 2026-02-19T05:23:23.179776
MEAN_MOTION    = 15.80883069
ECCENTRICITY   = .0001615
INCLINATION    = 97.2851
RA_OF_ASC_NODE = 115.1592
ARG_OF_PERICENTER = 103.9791
MEAN_ANOMALY   = 256.1657

EPHEMERIS_TYPE = 0
CLASSIFICATION_TYPE = U
NORAD_CAT_ID   = 67605
ELEMENT_SET_NO = 999
REV_AT_EPOCH   = 440
BSTAR          = .71237265E-3
MEAN_MOTION_DOT = .138932E-2
MEAN_MOTION_DDOT = 0

